NORAD_CAT_ID,OBJECT_NAME,OBJECT_TYPE,EPOCH,MEAN_MOTION,ECCENTRICITY,INCLINATION,RA_OF_ASC_NODE,ARG_OF_PERICENTER,MEAN_ANOMALY,BSTAR,MEAN_MOTION_DOT,MEAN_MOTION_DDOT,TLE_LINE0,TLE_LINE1,TLE_LINE2,SEMIMAJOR_AXIS,PERIOD,APOGEE,PERIGEE,DECAYED
50805.0,STARLINK-3333,PAYLOAD,2022-10-23 10:15:42,15.08840785,0.0002129,53.2186,295.4577,36.6896,323.4242,9.4417e-05,1.215e-05,0.0,0 STARLINK-3333,1 50805U 22001C   22296.42757819  .00001215  00000-0  94417-4 0  9995,2 50805  53.2186 295.4577 0002129  36.6896 323.4242 15.08840785 45630,6917.878000000002,95.438,541.216,538.27,0.0
50805.0,STARLINK-3333,PAYLOAD,2022-10-23 11:51:05,15.08840033,0.0002130999999999,53.2185,295.1602,36.985,323.1288,8.7473e-05,1.104e-05,0.0,0 STARLINK-3333,1 50805U 22001C   22296.49381887  .00001104  00000-0  87473-4 0  9991,2 50805  53.2185 295.1602 0002131  36.9850 323.1288 15.08840033 44374,6917.88,95.438,541.219,538.271,0.0
50805.0,STARLINK-3333,PAYLOAD,2022-10-23 16:37:15,15.08837408,0.0002097,53.2181,294.2686,36.2501,323.8633,0.00016103,2.275e-05,0.0,0 STARLINK-3333,1 50805U 22001C   22296.69253861  .00002275  00000-0  16103-3 0  9994,2 50805  53.2181 294.2686 0002097  36.2501 323.8633 15.08837408 44406,6917.888000000001,95.438,541.2040000000002,538.303,0.0
50805.0,STARLINK-3333,PAYLOAD,2022-10-24 00:34:10,15.08847708,0.000205,53.218,292.7808,36.6769,323.4364,0.00012976,1.778e-05,0.0,0 STARLINK-3333,1 50805U 22001C   22297.02373023  .00001778  00000-0  12976-3 0  9996,2 50805  53.2180 292.7808 0002050  36.6769 323.4364 15.08847708 45720,6917.857,95.437,541.14,538.304,0.0
50805.0,STARLINK-3333,PAYLOAD,2022-10-24 06:55:44,15.08813487,0.0001113,53.2182,291.5897,80.0243,280.0875,-0.00014681,-2.622e-05,0.0,0 STARLINK-3333,1 50805U 22001C   22297.28871488 -.00002622  00000-0 -14681-3 0  9998,2 50805  53.2182 291.5897 0001113  80.0243 280.0875 15.08813487 45762,6917.9609999999975,95.439,540.596,539.056,0.0
50805.0,STARLINK-3333,PAYLOAD,2022-10-24 16:28:03,15.0882115,0.0002161,53.2182,289.8074,40.5809,319.5344,-9.733e-05,-1.836e-05,0.0,0 STARLINK-3333,1 50805U 22001C   22297.68615629 -.00001836  00000-0 -97330-4 0  9994,2 50805  53.2182 289.8074 0002161  40.5809 319.5344 15.08821150 45824,6917.938,95.439,541.298,538.308,0.0
50805.0,STARLINK-3333,PAYLOAD,2022-10-25 09:57:19,15.08819699,0.0002136,53.2185,286.5365,42.2576,317.8581,-0.00010294,-1.925e-05,0.0,0 STARLINK-3333,1 50805U 22001C   22298.41480463 -.00001925  00000-0 -10294-3 0  9994,2 50805  53.2185 286.5365 0002136  42.2576 317.8581 15.08819699 44666,6917.941999999999,95.439,541.285,538.33,0.0
50805.0,STARLINK-3333,PAYLOAD,2022-10-25 16:18:51,15.08821711,0.0001921,53.2181,285.3456,41.3571,318.7566,-4.8164e-05,-1.054e-05,0.0,0 STARLINK-3333,1 50805U 22001C   22298.67976398 -.00001054  00000-0 -48164-4 0  9990,2 50805  53.2181 285.3456 0001921  41.3571 318.7566 15.08821711 44702,6917.936,95.439,541.13,538.472,0.0
50805.0,STARLINK-3333,PAYLOAD,2022-10-26 03:26:32,15.08842699,0.0001948,53.2178,283.2634,46.1687,313.9466,0.00010295,1.351e-05,0.0,0 STARLINK-3333,1 50805U 22001C   22299.14343141  .00001351  00000-0  10295-3 0  9998,2 50805  53.2178 283.2634 0001948  46.1687 313.9466 15.08842699 46046,6917.871999999999,95.437,541.085,538.39,0.0
50805.0,STARLINK-3333,PAYLOAD,2022-10-26 08:12:41,15.08870584,0.0001883,53.2181,282.3728,51.4939,308.6221,-0.00055209,-9.071e-05,0.0,0 STARLINK-3333,1 50805U 22001C   22299.34215011 -.00009071  00000-0 -55209-3 0  9997,2 50805  53.2181 282.3728 0001883  51.4939 308.6221 15.08870584 44807,6917.7869999999975,95.436,540.955,538.349,0.0
50805.0,STARLINK-3333,PAYLOAD,2022-10-26 16:09:38,15.08829438,0.0001903,53.2189,280.8846,46.7015,313.4136,0.00013828,1.913e-05,0.0,0 STARLINK-3333,1 50805U 22001C   22299.67336367  .00001913  00000-0  13828-3 0  9997,2 50805  53.2189 280.8846 0001903  46.7015 313.4136 15.08829438 46122,6917.913000000001,95.438,541.094,538.461,0.0
50805.0,STARLINK-3333,PAYLOAD,2022-10-27 11:14:15,15.08845766,0.0002206,53.2182,277.3178,44.8519,315.2651,0.00036065,5.457e-05,0.0,0 STARLINK-3333,1 50805U 22001C   22300.46823870  .00005457  00000-0  36065-3 0  9992,2 50805  53.2182 277.3178 0002206  44.8519 315.2651 15.08845766 46246,6917.863,95.437,541.254,538.202,0.0
50805.0,STARLINK-3333,PAYLOAD,2022-10-27 16:00:25,15.08855665,0.0002238,53.2176,276.4256,45.0067,315.1106,0.00051074,7.853e-05,0.0,0 STARLINK-3333,1 50805U 22001C   22300.66695946  .00007853  00000-0  51074-3 0  9994,2 50805  53.2176 276.4256 0002238  45.0067 315.1106 15.08855665 45008,6917.833000000001,95.437,541.246,538.149,0.0
50805.0,STARLINK-3333,PAYLOAD,2022-10-28 07:54:16,15.08863755,0.0002222,53.2173,273.4518,46.9704,313.1474,0.00041885,6.388e-05,0.0,0 STARLINK-3333,1 50805U 22001C   22301.32935242  .00006388  00000-0  41885-3 0  9995,2 50805  53.2173 273.4518 0002222  46.9704 313.1474 15.08863755 45100,6917.808000000001,95.436,541.21,538.136,0.0
50805.0,STARLINK-3333,PAYLOAD,2022-10-28 15:51:11,15.08862371,0.0002282,53.2174,271.9649,47.3084,312.81,0.00022747,3.336e-05,0.0,0 STARLINK-3333,1 50805U 22001C   22301.66054810  .00003336  00000-0  22747-3 0  9991,2 50805  53.2174 271.9649 0002282  47.3084 312.8100 15.08862371 46422,6917.812,95.436,541.256,538.0980000000002,0.0
50805.0,STARLINK-3333,PAYLOAD,2022-10-29 04:34:16,15.0885353,0.0002126999999999,53.2179,269.5856,49.9223,310.1955,-1.0055e-05,-4.48e-06,0.0,0 STARLINK-3333,1 50805U 22001C   22302.19046658 -.00000448  00000-0 -10055-4 0  9994,2 50805  53.2179 269.5856 0002127  49.9223 310.1955 15.08853530 46506,6917.839,95.437,541.175,538.2330000000002,0.0
50805.0,STARLINK-3333,PAYLOAD,2022-10-29 07:45:02,15.08856889,0.0002154,53.2185,268.9925,45.0265,315.0901,1.8633e-05,8e-08,0.0,0 STARLINK-3333,1 50805U 22001C   22302.32294543  .00000008  00000-0  18633-4 0  9997,2 50805  53.2185 268.9925 0002154  45.0265 315.0901 15.08856889 45252,6917.829000000002,95.436,541.184,538.2040000000002,0.0
50805.0,STARLINK-3333,PAYLOAD,2022-10-30 09:11:12,15.08839967,0.0002301,53.2182,264.23400000000004,42.6176,317.4994,-0.00018504,-3.232e-05,0.0,0 STARLINK-3333,1 50805U 22001C   22303.38278339 -.00003232  00000-0 -18504-3 0  9999,2 50805  53.2182 264.2340 0002301  42.6176 317.4994 15.08839967 45411,6917.88,95.438,541.337,538.154,0.0
50805.0,STARLINK-3333,PAYLOAD,2022-10-30 21:54:17,15.08845886,0.0002056,53.2175,261.8552,39.9655,320.1488,9.056e-05,1.154e-05,0.0,0 STARLINK-3333,1 50805U 22001C   22303.91269788  .00001154  00000-0  90560-4 0  9998,2 50805  53.2175 261.8552 0002056  39.9655 320.1488 15.08845886 45493,6917.861999999999,95.437,541.15,538.305,0.0
50805.0,STARLINK-3333,PAYLOAD,2022-10-31 09:01:58,15.08854883,0.0001901,53.2177,259.7735,42.6203,317.4937,-0.00024807,-4.236e-05,0.0,0 STARLINK-3333,1 50805U 22001C   22304.37637131 -.00004236  00000-0 -24807-3 0  9996,2 50805  53.2177 259.7735 0001901  42.6203 317.4937 15.08854883 45565,6917.835,95.437,541.015,538.385,0.0
50805.0,STARLINK-3333,PAYLOAD,2022-10-31 20:09:40,15.08844016,0.0001954,53.2176,257.692,42.4313,317.683,4.8134e-05,4.78e-06,0.0,0 STARLINK-3333,1 50805U 22001C   22304.84005671  .00000478  00000-0  48134-4 0  9998,2 50805  53.2176 257.6920 0001954  42.4313 317.6830 15.08844016 45634,6917.868,95.437,541.085,538.381,0.0
50805.0,STARLINK-3333,PAYLOAD,2022-11-01 08:52:46,15.08841672,0.0001942,53.2186,255.313,43.3931,316.7214,-2.4802e-05,-6.83e-06,0.0,0 STARLINK-3333,1 50805U 22001C   22305.36998139 -.00000683  00000-0 -24802-4 0  9992,2 50805  53.2186 255.3130 0001942  43.3931 316.7214 15.08841672 45716,6917.875,95.437,541.0840000000002,538.3969999999998,0.0
50805.0,STARLINK-3333,PAYLOAD,2022-11-01 13:38:56,15.08819573,0.0002139,53.2188,254.4207,41.4848,318.6306,9.8574e-05,1.28e-05,0.0,0 STARLINK-3333,1 50805U 22001C   22305.56871463  .00001280  00000-0  98574-4 0  9993,2 50805  53.2188 254.4207 0002139  41.4848 318.6306 15.08819573 47011,6917.943,95.439,541.288,538.328,0.0
50805.0,STARLINK-3333,PAYLOAD,2022-11-02 02:22:01,15.08834317,0.000199,53.2187,252.0434,43.6118,316.5031,0.00012036,1.628e-05,0.0,0 STARLINK-3333,1 50805U 22001C   22306.09862659  .00001628  00000-0  12036-3 0  9993,2 50805  53.2187 252.0434 0001990  43.6118 316.5031 15.08834317 47097,6917.898,95.438,541.139,538.386,0.0
50805.0,STARLINK-3333,PAYLOAD,2022-11-02 08:43:34,15.08832801,0.0001981,53.2184,250.853,44.7785,315.3366,0.00010151,1.327e-05,0.0,0 STARLINK-3333,1 50805U 22001C   22306.36358968  .00001327  00000-0  10151-3 0  9998,2 50805  53.2184 250.8530 0001981  44.7785 315.3366 15.08832801 45866,6917.901999999999,95.438,541.138,538.3969999999998,0.0
50805.0,STARLINK-3333,PAYLOAD,2022-11-02 13:29:43,15.08829385,0.0002037,53.2185,249.9606,45.0528,315.0629,9.6938e-06,-1.34e-06,0.0,0 STARLINK-3333,1 50805U 22001C   22306.56231459 -.00000134  00000-0  96938-5 0  9990,2 50805  53.2185 249.9606 0002037  45.0528 315.0629 15.08829385 47169,6917.913000000001,95.438,541.187,538.369,0.0
50805.0,STARLINK-3333,PAYLOAD,2022-11-03 03:48:11,15.08840749,0.0002004,53.2174,247.2848,45.8858,314.2299,0.00019967,2.891e-05,0.0,0 STARLINK-3333,1 50805U 22001C   22307.15846808  .00002891  00000-0  19967-3 0  9992,2 50805  53.2174 247.2848 0002004  45.8858 314.2299 15.08840749 47255,6917.878000000002,95.438,541.129,538.357,0.0
50805.0,STARLINK-3333,PAYLOAD,2022-11-03 05:23:34,15.08847274,0.0001942,53.2175,246.9866,41.1056,319.0082,0.0002215,3.239e-05,0.0,0 STARLINK-3333,1 50805U 22001C   22307.22470465  .00003239  00000-0  22150-3 0  9997,2 50805  53.2175 246.9866 0001942  41.1056 319.0082 15.08847274 45993,6917.858,95.437,541.067,538.38,0.0
50805.0,STARLINK-3333,PAYLOAD,2022-11-03 19:42:02,15.08851471,0.0002092,53.2173,244.3108,47.3524,312.7644,0.00038173,5.794e-05,0.0,0 STARLINK-3333,1 50805U 22001C   22307.82086360  .00005794  00000-0  38173-3 0  9990,2 50805  53.2173 244.3108 0002092  47.3524 312.7644 15.08851471 46086,6917.845,95.437,541.158,538.263,0.0
